[
  {
    "OBJECT_NAME": "STARLINK-34196",
    "OBJECT_ID": "25189B",
    "EPOCH": "2025-11-11T08:00:03.000384",
    "MEAN_MOTION": 15.3258468,
    "ECCENTRICITY": 0.000175,
    "INCLINATION": 53.1603,
    "RA_OF_ASC_NODE": 36.317,
    "ARG_OF_PERICENTER": 94.3819,
    "MEAN_ANOMALY": 80.3394,
    "EPHEMERIS_TYPE": 0,
    "CLASSIFICATION_TYPE": "U",
    "NORAD_CAT_ID": 65324,
    "ELEMENT_SET_NO": 999,
    "REV_AT_EPOCH": 591,
    "BSTAR": 0.0,
    "MEAN_MOTION_DOT": -0.01876881,
    "MEAN_MOTION_DDOT": 0.0,
    "TLE_LINE1": "1 65324U 25189B   25315.33336806 -.01876881  00000+0 -65686-1 0  9995",
    "TLE_LINE2": "2 65324  53.1603  36.3170 0001750  94.3819  80.3394 15.32584680  5911",
    "COMMENT": "Grouped by shell and plane from TLE"
  },
  {
    "OBJECT_NAME": "STARLINK-34911",
    "OBJECT_ID": "25189C",
    "EPOCH": "2025-11-11T08:00:03.000384",
    "MEAN_MOTION": 15.30189679,
    "ECCENTRICITY": 9.91e-05,
    "INCLINATION": 53.1595,
    "RA_OF_ASC_NODE": 36.7394,
    "ARG_OF_PERICENTER": 77.1454,
    "MEAN_ANOMALY": 244.7579,
    "EPHEMERIS_TYPE": 0,
    "CLASSIFICATION_TYPE": "U",
    "NORAD_CAT_ID": 65325,
    "ELEMENT_SET_NO": 999,
    "REV_AT_EPOCH": 592,
    "BSTAR": 0.00036347,
    "MEAN_MOTION_DOT": 0.00010418,
    "MEAN_MOTION_DDOT": 0.0,
    "TLE_LINE1": "1 65325U 25189C   25315.33336806  .00010418  00000+0  36347-3 0  9993",
    "TLE_LINE2": "2 65325  53.1595  36.7394 0000991  77.1454 244.7579 15.30189679  5923",
    "COMMENT": "Grouped by shell and plane from TLE"
  },
  {
    "OBJECT_NAME": "STARLINK-34902",
    "OBJECT_ID": "25189D",
    "EPOCH": "2025-11-11T06:19:17.756544",
    "MEAN_MOTION": 15.30618571,
    "ECCENTRICITY": 0.0002732,
    "INCLINATION": 53.1588,
    "RA_OF_ASC_NODE": 36.9372,
    "ARG_OF_PERICENTER": 39.6709,
    "MEAN_ANOMALY": 320.4491,
    "EPHEMERIS_TYPE": 0,
    "CLASSIFICATION_TYPE": "U",
    "NORAD_CAT_ID": 65326,
    "ELEMENT_SET_NO": 999,
    "REV_AT_EPOCH": 1297,
    "BSTAR": 0.0,
    "MEAN_MOTION_DOT": -0.00276868,
    "MEAN_MOTION_DDOT": 0.0,
    "TLE_LINE1": "1 65326U 25189D   25315.26339996 -.00276868  00000+0 -95597-2 0  9995",
    "TLE_LINE2": "2 65326  53.1588  36.9372 0002732  39.6709 320.4491 15.30618571 12971",
    "COMMENT": "Grouped by shell and plane from TLE"
  },
  {
    "OBJECT_NAME": "STARLINK-34885",
    "OBJECT_ID": "25189F",
    "EPOCH": "2025-11-11T08:00:03.000384",
    "MEAN_MOTION": 15.30190039,
    "ECCENTRICITY": 0.0001239,
    "INCLINATION": 53.1594,
    "RA_OF_ASC_NODE": 36.5429,
    "ARG_OF_PERICENTER": 76.5036,
    "MEAN_ANOMALY": 344.2899,
    "EPHEMERIS_TYPE": 0,
    "CLASSIFICATION_TYPE": "U",
    "NORAD_CAT_ID": 65328,
    "ELEMENT_SET_NO": 999,
    "REV_AT_EPOCH": 597,
    "BSTAR": 0.00019282,
    "MEAN_MOTION_DOT": 5.354e-05,
    "MEAN_MOTION_DDOT": 0.0,
    "TLE_LINE1": "1 65328U 25189F   25315.33336806  .00005354  00000+0  19282-3 0  9998",
    "TLE_LINE2": "2 65328  53.1594  36.5429 0001239  76.5036 344.2899 15.30190039  5975",
    "COMMENT": "Grouped by shell and plane from TLE"
  },
  {
    "OBJECT_NAME": "STARLINK-34908",
    "OBJECT_ID": "25189G",
    "EPOCH": "2025-11-11T06:04:03.388800",
    "MEAN_MOTION": 15.30234454,
    "ECCENTRICITY": 0.0001336,
    "INCLINATION": 53.1599,
    "RA_OF_ASC_NODE": 36.8674,
    "ARG_OF_PERICENTER": 89.4009,
    "MEAN_ANOMALY": 270.7145,
    "EPHEMERIS_TYPE": 0,
    "CLASSIFICATION_TYPE": "U",
    "NORAD_CAT_ID": 65329,
    "ELEMENT_SET_NO": 999,
    "REV_AT_EPOCH": 1297,
    "BSTAR": 0.001901,
    "MEAN_MOTION_DOT": 0.00056431,
    "MEAN_MOTION_DDOT": 0.0,
    "TLE_LINE1": "1 65329U 25189G   25315.25281700  .00056431  00000+0  19010-2 0  9992",
    "TLE_LINE2": "2 65329  53.1599  36.8674 0001336  89.4009 270.7145 15.30234454 12972",
    "COMMENT": "Grouped by shell and plane from TLE"
  },
  {
    "OBJECT_NAME": "STARLINK-34864",
    "OBJECT_ID": "25189H",
    "EPOCH": "2025-11-11T08:00:03.000384",
    "MEAN_MOTION": 15.3185616,
    "ECCENTRICITY": 9.47e-05,
    "INCLINATION": 53.1603,
    "RA_OF_ASC_NODE": 36.4275,
    "ARG_OF_PERICENTER": 84.36,
    "MEAN_ANOMALY": 33.4963,
    "EPHEMERIS_TYPE": 0,
    "CLASSIFICATION_TYPE": "U",
    "NORAD_CAT_ID": 65330,
    "ELEMENT_SET_NO": 999,
    "REV_AT_EPOCH": 576,
    "BSTAR": 0.0,
    "MEAN_MOTION_DOT": -0.02016136,
    "MEAN_MOTION_DDOT": 0.0,
    "TLE_LINE1": "1 65330U 25189H   25315.33336806 -.02016136  00000+0 -71500-1 0  9994",
    "TLE_LINE2": "2 65330  53.1603  36.4275 0000947  84.3600  33.4963 15.31856160  5767",
    "COMMENT": "Grouped by shell and plane from TLE"
  },
  {
    "OBJECT_NAME": "STARLINK-34918",
    "OBJECT_ID": "25189J",
    "EPOCH": "2025-11-11T08:00:03.000384",
    "MEAN_MOTION": 15.30654302,
    "ECCENTRICITY": 0.0001129,
    "INCLINATION": 53.16,
    "RA_OF_ASC_NODE": 36.3866,
    "ARG_OF_PERICENTER": 90.2811,
    "MEAN_ANOMALY": 45.9246,
    "EPHEMERIS_TYPE": 0,
    "CLASSIFICATION_TYPE": "U",
    "NORAD_CAT_ID": 65331,
    "ELEMENT_SET_NO": 999,
    "REV_AT_EPOCH": 591,
    "BSTAR": 0.0,
    "MEAN_MOTION_DOT": -0.00706253,
    "MEAN_MOTION_DDOT": 0.0,
    "TLE_LINE1": "1 65331U 25189J   25315.33336806 -.00706253  00000+0 -25449-1 0  9990",
    "TLE_LINE2": "2 65331  53.1600  36.3866 0001129  90.2811  45.9246 15.30654302  5915",
    "COMMENT": "Grouped by shell and plane from TLE"
  },
  {
    "OBJECT_NAME": "STARLINK-33890",
    "OBJECT_ID": "25189K",
    "EPOCH": "2025-11-10T14:11:21.983424",
    "MEAN_MOTION": 15.30199143,
    "ECCENTRICITY": 0.0001209,
    "INCLINATION": 53.1598,
    "RA_OF_ASC_NODE": 39.8395,
    "ARG_OF_PERICENTER": 99.9882,
    "MEAN_ANOMALY": 260.1255,
    "EPHEMERIS_TYPE": 0,
    "CLASSIFICATION_TYPE": "U",
    "NORAD_CAT_ID": 65332,
    "ELEMENT_SET_NO": 999,
    "REV_AT_EPOCH": 1167,
    "BSTAR": 0.00082195,
    "MEAN_MOTION_DOT": 0.00024063,
    "MEAN_MOTION_DDOT": 0.0,
    "TLE_LINE1": "1 65332U 25189K   25314.59122666  .00024063  00000+0  82195-3 0  9998",
    "TLE_LINE2": "2 65332  53.1598  39.8395 0001209  99.9882 260.1255 15.30199143 11678",
    "COMMENT": "Grouped by shell and plane from TLE"
  },
  {
    "OBJECT_NAME": "STARLINK-34602",
    "OBJECT_ID": "25189L",
    "EPOCH": "2025-11-11T08:00:03.000384",
    "MEAN_MOTION": 15.30343448,
    "ECCENTRICITY": 0.0001162,
    "INCLINATION": 53.1609,
    "RA_OF_ASC_NODE": 36.294,
    "ARG_OF_PERICENTER": 92.6491,
    "MEAN_ANOMALY": 90.3228,
    "EPHEMERIS_TYPE": 0,
    "CLASSIFICATION_TYPE": "U",
    "NORAD_CAT_ID": 65333,
    "ELEMENT_SET_NO": 999,
    "REV_AT_EPOCH": 586,
    "BSTAR": 0.0,
    "MEAN_MOTION_DOT": -0.00278812,
    "MEAN_MOTION_DDOT": 0.0,
    "TLE_LINE1": "1 65333U 25189L   25315.33336806 -.00278812  00000+0 -97141-2 0  9996",
    "TLE_LINE2": "2 65333  53.1609  36.2940 0001162  92.6491  90.3228 15.30343448  5869",
    "COMMENT": "Grouped by shell and plane from TLE"
  },
  {
    "OBJECT_NAME": "STARLINK-34878",
    "OBJECT_ID": "25189M",
    "EPOCH": "2025-11-11T06:28:12.031680",
    "MEAN_MOTION": 15.39705204,
    "ECCENTRICITY": 0.0001196,
    "INCLINATION": 53.1576,
    "RA_OF_ASC_NODE": 36.9799,
    "ARG_OF_PERICENTER": 48.2665,
    "MEAN_ANOMALY": 311.8442,
    "EPHEMERIS_TYPE": 0,
    "CLASSIFICATION_TYPE": "U",
    "NORAD_CAT_ID": 65334,
    "ELEMENT_SET_NO": 999,
    "REV_AT_EPOCH": 1297,
    "BSTAR": 0.0024456,
    "MEAN_MOTION_DOT": 0.00098978,
    "MEAN_MOTION_DDOT": 0.0,
    "TLE_LINE1": "1 65334U 25189M   25315.26958370  .00098978  00000+0  24456-2 0  9995",
    "TLE_LINE2": "2 65334  53.1576  36.9799 0001196  48.2665 311.8442 15.39705204 12979",
    "COMMENT": "Grouped by shell and plane from TLE"
  },
  {
    "OBJECT_NAME": "STARLINK-34874",
    "OBJECT_ID": "25189N",
    "EPOCH": "2025-11-11T05:11:02.014656",
    "MEAN_MOTION": 15.30251186,
    "ECCENTRICITY": 0.0001972,
    "INCLINATION": 53.1613,
    "RA_OF_ASC_NODE": 37.345,
    "ARG_OF_PERICENTER": 74.7616,
    "MEAN_ANOMALY": 285.3603,
    "EPHEMERIS_TYPE": 0,
    "CLASSIFICATION_TYPE": "U",
    "NORAD_CAT_ID": 65335,
    "ELEMENT_SET_NO": 999,
    "REV_AT_EPOCH": 1296,
    "BSTAR": 0.0017333000000000001,
    "MEAN_MOTION_DOT": 0.00051414,
    "MEAN_MOTION_DDOT": 0.0,
    "TLE_LINE1": "1 65335U 25189N   25315.21599554  .00051414  00000+0  17333-2 0  9996",
    "TLE_LINE2": "2 65335  53.1613  37.3450 0001972  74.7616 285.3603 15.30251186 12962",
    "COMMENT": "Grouped by shell and plane from TLE"
  },
  {
    "OBJECT_NAME": "STARLINK-34835",
    "OBJECT_ID": "25189P",
    "EPOCH": "2025-11-11T08:00:03.000384",
    "MEAN_MOTION": 15.30173282,
    "ECCENTRICITY": 0.0001495,
    "INCLINATION": 53.1595,
    "RA_OF_ASC_NODE": 36.8402,
    "ARG_OF_PERICENTER": 93.1892,
    "MEAN_ANOMALY": 176.4047,
    "EPHEMERIS_TYPE": 0,
    "CLASSIFICATION_TYPE": "U",
    "NORAD_CAT_ID": 65336,
    "ELEMENT_SET_NO": 999,
    "REV_AT_EPOCH": 592,
    "BSTAR": 0.00039850000000000004,
    "MEAN_MOTION_DOT": 0.00011452,
    "MEAN_MOTION_DDOT": 0.0,
    "TLE_LINE1": "1 65336U 25189P   25315.33336806  .00011452  00000+0  39850-3 0  9996",
    "TLE_LINE2": "2 65336  53.1595  36.8402 0001495  93.1892 176.4047 15.30173282  5924",
    "COMMENT": "Grouped by shell and plane from TLE"
  },
  {
    "OBJECT_NAME": "STARLINK-34854",
    "OBJECT_ID": "25189Q",
    "EPOCH": "2025-11-11T08:00:03.000384",
    "MEAN_MOTION": 15.32127827,
    "ECCENTRICITY": 0.0001605,
    "INCLINATION": 53.1601,
    "RA_OF_ASC_NODE": 36.3704,
    "ARG_OF_PERICENTER": 89.5689,
    "MEAN_ANOMALY": 56.8019,
    "EPHEMERIS_TYPE": 0,
    "CLASSIFICATION_TYPE": "U",
    "NORAD_CAT_ID": 65337,
    "ELEMENT_SET_NO": 999,
    "REV_AT_EPOCH": 576,
    "BSTAR": 0.0,
    "MEAN_MOTION_DOT": -0.01824926,
    "MEAN_MOTION_DDOT": 0.0,
    "TLE_LINE1": "1 65337U 25189Q   25315.33336806 -.01824926  00000+0 -64593-1 0  9998",
    "TLE_LINE2": "2 65337  53.1601  36.3704 0001605  89.5689  56.8019 15.32127827  5767",
    "COMMENT": "Grouped by shell and plane from TLE"
  }
]